{
  "type": "FeatureCollection",
  "features": [
    {"type":"Feature","properties":{"name":"St. Luke's Medical Center Global City Heliport PH-0375","helipad":true,"district":"BGC","city":"Taguig","note":"Certified hospital heliport - PAF High-Rise Proficiency Training site 2025-10-29 Bell 412 - 31m MSL - Private"},"geometry":{"type":"Point","coordinates":[121.04797,14.55507]}},
    {"type":"Feature","properties":{"name":"Grand Hyatt Manila Residences South Tower Heliport","helipad":true,"district":"BGC","city":"Taguig","note":"Residential tower helipad OurAirports PH-0732 / Sprinkle SPK-PH-00448 - 14.55647,121.05183"},"geometry":{"type":"Point","coordinates":[121.05183,14.55647]}},
    {"type":"Feature","properties":{"name":"W City Center Heliport","helipad":true,"district":"BGC","city":"Taguig","note":"OurAirports W City Center - BGC central"},"geometry":{"type":"Point","coordinates":[121.0445,14.5528]}},
    {"type":"Feature","properties":{"name":"Uptown Mall Heliport","helipad":true,"district":"BGC","city":"Taguig","note":"Uptown Bonifacio retail heliport"},"geometry":{"type":"Point","coordinates":[121.0532,14.5562]}},
    {"type":"Feature","properties":{"name":"One McKinley Place Helipad","helipad":true,"district":"BGC","city":"Taguig","note":"McKinley Hill BGC"},"geometry":{"type":"Point","coordinates":[121.0512,14.5462]}},
    {"type":"Feature","properties":{"name":"Eight Forbestown Road Helipad","helipad":true,"district":"BGC","city":"Taguig","note":"Forbestown BGC - Megaworld"},"geometry":{"type":"Point","coordinates":[121.0412,14.5522]}},
    {"type":"Feature","properties":{"name":"Fort Legend Tower Helipad","helipad":true,"district":"BGC","city":"Taguig","note":"Fort Legend - OurAirports"},"geometry":{"type":"Point","coordinates":[121.0455,14.5515]}},
    {"type":"Feature","properties":{"name":"Globe Tower Helipad","helipad":true,"district":"BGC","city":"Taguig","note":"Globe Tower BGC"},"geometry":{"type":"Point","coordinates":[121.0488,14.5505]}},
    {"type":"Feature","properties":{"name":"Asian Century Center Heliport","helipad":true,"district":"BGC","city":"Taguig","note":"Asian Century - OurAirports"},"geometry":{"type":"Point","coordinates":[121.0425,14.5535]}},
    {"type":"Feature","properties":{"name":"SM Aura Office Tower Helipad","helipad":true,"district":"BGC","city":"Taguig","note":"SM Aura Premier - BGC south"},"geometry":{"type":"Point","coordinates":[121.0548,14.5465]}},
    {"type":"Feature","properties":{"name":"Pacific Plaza Towers Helipad","helipad":true,"district":"BGC","city":"Taguig","note":"Pacific Plaza North/South - BGC Ayala"},"geometry":{"type":"Point","coordinates":[121.0525,14.5485]}},
    {"type":"Feature","properties":{"name":"Fort Bonifacio Heliport (AFP)","helipad":true,"district":"BGC","city":"Taguig","note":"Military heliport Fort Bonifacio - Army Hiraya Regiment cross-country to HPA Helipad"},"geometry":{"type":"Point","coordinates":[121.0450,14.5175]}},
    {"type":"Feature","properties":{"name":"Fort Victoria Tower A/B/C Helipad","helipad":true,"district":"BGC","city":"Taguig","note":"Fort Victoria - 3 towers"},"geometry":{"type":"Point","coordinates":[121.0435,14.5550]}},
    {"type":"Feature","properties":{"name":"Essensa 1 & 2 Helipad","helipad":true,"district":"BGC","city":"Taguig","note":"Essensa - Fort Bonifacio"},"geometry":{"type":"Point","coordinates":[121.0420,14.5510]}},
    {"type":"Feature","properties":{"name":"BGC Track 30th Open Field (LZ - Not Building)","helipad":false,"lz":true,"district":"BGC","city":"Taguig","note":"Open field near Track 30th / Turf BGC - suitable platoon DZ with civilian clearance"},"geometry":{"type":"Point","coordinates":[121.0450,14.5542]}},
    {"type":"Feature","properties":{"name":"Burgos Circle Open Area (NO LZ - Civilian)","helipad":false,"lz":false,"district":"BGC","city":"Taguig","note":"Traffic circle - high civilian foot traffic - NO landing 14.552722,121.044361"},"geometry":{"type":"Point","coordinates":[121.044361,14.552722]}},
    {"type":"Feature","properties":{"name":"Bonifacio High Street Central (NO LZ - Civilian)","helipad":false,"lz":false,"district":"BGC","city":"Taguig","note":"High foot traffic retail - NO landing"},"geometry":{"type":"Point","coordinates":[121.0465,14.5535]}},
    {"type":"Feature","properties":{"name":"Seda BGC Helipad","helipad":true,"district":"BGC","city":"Taguig","note":"Seda Hotel BGC - verified via Shangri-La The Fort VIP heli transfers"},"geometry":{"type":"Point","coordinates":[121.0472,14.5521]}}
  ]
}
