{"type": "FeatureCollection", "features": [{"type": "Feature", "geometry": {"type": "Point", "coordinates": [120.99658, 14.52419]}, "properties": {"name": "Protacio Hospital", "kind": "hospital", "osm_id": 25389198}}, {"type": "Feature", "geometry": {"type": "Point", "coordinates": [120.98982, 14.61225]}, "properties": {"name": "UST Hospital Clinical Division", "kind": "hospital", "osm_id": 255051235}}, {"type": "Feature", "geometry": {"type": "Point", "coordinates": [121.0398, 14.72152]}, "properties": {"name": "Our Lady of Mercy Hospital", "kind": "hospital", "osm_id": 255059925}}, {"type": "Feature", "geometry": {"type": "Point", "coordinates": [121.04344, 14.7303]}, "properties": {"name": "A. R. Bautista Children And General Hospital", "kind": "hospital", "osm_id": 255060717}}, {"type": "Feature", "geometry": {"type": "Point", "coordinates": [120.96562, 14.69316]}, "properties": {"name": "St. John Hospital", "kind": "hospital", "osm_id": 255060785}}, {"type": "Feature", "geometry": {"type": "Point", "coordinates": [121.07064, 14.737]}, "properties": {"name": "Casual General Hospital", "kind": "hospital", "osm_id": 255061867}}, {"type": "Feature", "geometry": {"type": "Point", "coordinates": [121.02509, 14.6599]}, "properties": {"name": "J. P. Sioson General Hospital And Colleges", "kind": "hospital", "osm_id": 255063024}}, {"type": "Feature", "geometry": {"type": "Point", "coordinates": [121.04251, 14.72937]}, "properties": {"name": "Fairview Polymedic Hospital", "kind": "hospital", "osm_id": 255066513}}, {"type": "Feature", "geometry": {"type": "Point", "coordinates": [121.08513, 14.58352]}, "properties": {"name": "Mother Regina", "kind": "hospital", "osm_id": 255067973}}, {"type": "Feature", "geometry": {"type": "Point", "coordinates": [121.00515, 14.7188]}, "properties": {"name": "Acebedo General Hospital", "kind": "hospital", "osm_id": 255070486}}, {"type": "Feature", "geometry": {"type": "Point", "coordinates": [120.94316, 14.67563]}, "properties": {"name": "Tanchoco Clinic", "kind": "hospital", "osm_id": 255071671}}, {"type": "Feature", "geometry": {"type": "Point", "coordinates": [120.98176, 14.64872]}, "properties": {"name": "Our Lady Of Grace Hospital", "kind": "hospital", "osm_id": 255071879}}, {"type": "Feature", "geometry": {"type": "Point", "coordinates": [120.95807, 14.73846]}, "properties": {"name": "B A Hospital", "kind": "hospital", "osm_id": 589717017}}, {"type": "Feature", "geometry": {"type": "Point", "coordinates": [120.91103, 14.7445]}, "properties": {"name": "Tawiran Public Clinic", "kind": "hospital", "osm_id": 597116607}}, {"type": "Feature", "geometry": {"type": "Point", "coordinates": [121.23917, 14.51656]}, "properties": {"name": "Rizal Provincial Hospital", "kind": "hospital", "osm_id": 600381971}}, {"type": "Feature", "geometry": {"type": "Point", "coordinates": [121.02379, 14.50135]}, "properties": {"name": "Commcare, Inc.", "kind": "hospital", "osm_id": 643218009}}, {"type": "Feature", "geometry": {"type": "Point", "coordinates": [120.8575, 14.41329]}, "properties": {"name": "Contreras Medical Clinic and Hospital", "kind": "hospital", "osm_id": 660610237}}, {"type": "Feature", "geometry": {"type": "Point", "coordinates": [121.10983, 14.63558]}, "properties": {"name": "unnamed", "kind": "hospital", "osm_id": 925986449}}, {"type": "Feature", "geometry": {"type": "Point", "coordinates": [120.9781, 14.63285]}, "properties": {"name": "Amisola Maternity Hospital", "kind": "hospital", "osm_id": 1279209740}}, {"type": "Feature", "geometry": {"type": "Point", "coordinates": [121.04432, 14.39104]}, "properties": {"name": "Alabang Medical Clinic", "kind": "hospital", "osm_id": 1294244416}}, {"type": "Feature", "geometry": {"type": "Point", "coordinates": [120.99162, 14.44222]}, "properties": {"name": "Aesthetic Avenue Medical Clinic", "kind": "hospital", "osm_id": 1728914761}}, {"type": "Feature", "geometry": {"type": "Point", "coordinates": [120.99159, 14.4423]}, "properties": {"name": "BF Maternity Clinic", "kind": "hospital", "osm_id": 1728914773}}, {"type": "Feature", "geometry": {"type": "Point", "coordinates": [121.08611, 14.5682]}, "properties": {"name": "Alfonso Clinic", "kind": "hospital", "osm_id": 1998698325}}, {"type": "Feature", "geometry": {"type": "Point", "coordinates": [121.01515, 14.5964]}, "properties": {"name": "unnamed", "kind": "power_substation", "osm_id": 2126363168}}, {"type": "Feature", "geometry": {"type": "Point", "coordinates": [121.01746, 14.59224]}, "properties": {"name": "Manila Sector", "kind": "power_substation", "osm_id": 2126363194}}, {"type": "Feature", "geometry": {"type": "Point", "coordinates": [121.02599, 14.42752]}, "properties": {"name": "Ayala Alabang Substation", "kind": "power_substation", "osm_id": 2153569632}}, {"type": "Feature", "geometry": {"type": "Point", "coordinates": [121.03178, 14.71184]}, "properties": {"name": "unnamed", "kind": "power_substation", "osm_id": 2508927841}}, {"type": "Feature", "geometry": {"type": "Point", "coordinates": [120.97775, 14.6895]}, "properties": {"name": "Valenzuela City Medical Center", "kind": "hospital", "osm_id": 2565829028}}, {"type": "Feature", "geometry": {"type": "Point", "coordinates": [120.8742, 14.4257]}, "properties": {"name": "St. Martin Maternity and Pediatrics Hospital", "kind": "hospital", "osm_id": 2610273475}}, {"type": "Feature", "geometry": {"type": "Point", "coordinates": [121.04468, 14.64733]}, "properties": {"name": "unnamed", "kind": "hospital", "osm_id": 3412055766}}, {"type": "Feature", "geometry": {"type": "Point", "coordinates": [121.06493, 14.34886]}, "properties": {"name": "San Pedro Doctor's Hospital", "kind": "hospital", "osm_id": 4107717630}}, {"type": "Feature", "geometry": {"type": "Point", "coordinates": [121.04033, 14.41806]}, "properties": {"name": "unnamed", "kind": "power_substation", "osm_id": 4381582607}}, {"type": "Feature", "geometry": {"type": "Point", "coordinates": [121.04424, 14.39465]}, "properties": {"name": "unnamed", "kind": "power_substation", "osm_id": 4414809293}}, {"type": "Feature", "geometry": {"type": "Point", "coordinates": [121.0419, 14.36466]}, "properties": {"name": "unnamed", "kind": "power_substation", "osm_id": 4426323848}}, {"type": "Feature", "geometry": {"type": "Point", "coordinates": [121.04488, 14.37751]}, "properties": {"name": "unnamed", "kind": "power_substation", "osm_id": 4483297735}}, {"type": "Feature", "geometry": {"type": "Point", "coordinates": [121.01255, 14.37635]}, "properties": {"name": "unnamed", "kind": "power_substation", "osm_id": 4496608833}}, {"type": "Feature", "geometry": {"type": "Point", "coordinates": [121.04703, 14.41104]}, "properties": {"name": "unnamed", "kind": "power_substation", "osm_id": 4533933869}}, {"type": "Feature", "geometry": {"type": "Point", "coordinates": [121.01138, 14.40027]}, "properties": {"name": "unnamed", "kind": "power_substation", "osm_id": 4548885225}}, {"type": "Feature", "geometry": {"type": "Point", "coordinates": [121.044, 14.4167]}, "properties": {"name": "unnamed", "kind": "power_substation", "osm_id": 4592771042}}, {"type": "Feature", "geometry": {"type": "Point", "coordinates": [120.98071, 14.58599]}, "properties": {"name": "unnamed", "kind": "power_substation", "osm_id": 4823208932}}, {"type": "Feature", "geometry": {"type": "Point", "coordinates": [120.99233, 14.6081]}, "properties": {"name": "Perpetual Succor Maternity Hospital", "kind": "hospital", "osm_id": 4916564521}}, {"type": "Feature", "geometry": {"type": "Point", "coordinates": [120.99785, 14.53343]}, "properties": {"name": "unnamed", "kind": "power_substation", "osm_id": 4977761380}}, {"type": "Feature", "geometry": {"type": "Point", "coordinates": [121.1327, 14.54807]}, "properties": {"name": "Crossroads Treatment and Rehabilitation Center", "kind": "hospital", "osm_id": 5416366377}}, {"type": "Feature", "geometry": {"type": "Point", "coordinates": [120.95715, 14.74973]}, "properties": {"name": "unnamed", "kind": "hospital", "osm_id": 5737752391}}, {"type": "Feature", "geometry": {"type": "Point", "coordinates": [120.99267, 14.57281]}, "properties": {"name": "Micah Clinic", "kind": "hospital", "osm_id": 5746203921}}, {"type": "Feature", "geometry": {"type": "Point", "coordinates": [120.99007, 14.6115]}, "properties": {"name": "Ambulatory CPU Lingap Bata \u2013 UST Medical Social Service Dapartment", "kind": "hospital", "osm_id": 6011953702}}, {"type": "Feature", "geometry": {"type": "Point", "coordinates": [121.15227, 14.61926]}, "properties": {"name": "Fatima University Medical Center", "kind": "hospital", "osm_id": 6036095585}}, {"type": "Feature", "geometry": {"type": "Point", "coordinates": [120.98931, 14.43388]}, "properties": {"name": "King of Kings Servant Healer Medical Clinic", "kind": "hospital", "osm_id": 6094516077}}, {"type": "Feature", "geometry": {"type": "Point", "coordinates": [121.14367, 14.5741]}, "properties": {"name": "manila east medical center", "kind": "hospital", "osm_id": 6192293786}}, {"type": "Feature", "geometry": {"type": "Point", "coordinates": [121.05097, 14.79559]}, "properties": {"name": "Gaya-gaya Substation", "kind": "power_substation", "osm_id": 6280454079}}, {"type": "Feature", "geometry": {"type": "Point", "coordinates": [121.0246, 14.63588]}, "properties": {"name": "Philippine Medical Tests System", "kind": "hospital", "osm_id": 6351453988}}, {"type": "Feature", "geometry": {"type": "Point", "coordinates": [121.05782, 14.48889]}, "properties": {"name": "Doctor J. Sabili General Hospital", "kind": "hospital", "osm_id": 6380993970}}, {"type": "Feature", "geometry": {"type": "Point", "coordinates": [120.97434, 14.39796]}, "properties": {"name": "Prime Global Care Medical Center Inc.", "kind": "hospital", "osm_id": 6601658615}}, {"type": "Feature", "geometry": {"type": "Point", "coordinates": [121.02106, 14.68285]}, "properties": {"name": "Vian Family Hospital II", "kind": "hospital", "osm_id": 7278748585}}, {"type": "Feature", "geometry": {"type": "Point", "coordinates": [120.98138, 14.6489]}, "properties": {"name": "Our Lady of Grace Hospital", "kind": "hospital", "osm_id": 8424682317}}, {"type": "Feature", "geometry": {"type": "Point", "coordinates": [121.03968, 14.72387]}, "properties": {"name": "Queensberry", "kind": "hospital", "osm_id": 8720820470}}, {"type": "Feature", "geometry": {"type": "Point", "coordinates": [121.00669, 14.71922]}, "properties": {"name": "Our Lady of Lourdes Hospital", "kind": "hospital", "osm_id": 8737517378}}, {"type": "Feature", "geometry": {"type": "Point", "coordinates": [120.98846, 14.52141]}, "properties": {"name": "unnamed", "kind": "power_substation", "osm_id": 9794449721}}, {"type": "Feature", "geometry": {"type": "Point", "coordinates": [120.98347, 14.48821]}, "properties": {"name": "unnamed", "kind": "hospital", "osm_id": 10733933205}}, {"type": "Feature", "geometry": {"type": "Point", "coordinates": [120.98252, 14.5799]}, "properties": {"name": "unnamed", "kind": "power_substation", "osm_id": 10817230042}}, {"type": "Feature", "geometry": {"type": "Point", "coordinates": [121.01623, 14.60072]}, "properties": {"name": "Unciano Paramedical General Hospital", "kind": "hospital", "osm_id": 11082277450}}, {"type": "Feature", "geometry": {"type": "Point", "coordinates": [121.0231, 14.59473]}, "properties": {"name": "Our Lady of Lourdes Hospital", "kind": "hospital", "osm_id": 11082277452}}, {"type": "Feature", "geometry": {"type": "Point", "coordinates": [120.99241, 14.5756]}, "properties": {"name": "unnamed", "kind": "hospital", "osm_id": 11399863870}}, {"type": "Feature", "geometry": {"type": "Point", "coordinates": [121.18608, 14.57824]}, "properties": {"name": "RPHS II", "kind": "hospital", "osm_id": 11760406138}}, {"type": "Feature", "geometry": {"type": "Point", "coordinates": [120.95253, 14.65875]}, "properties": {"name": "CSM Dental Clinic", "kind": "hospital", "osm_id": 12193991210}}, {"type": "Feature", "geometry": {"type": "Point", "coordinates": [120.95133, 14.66027]}, "properties": {"name": "CB Dialysis Center", "kind": "hospital", "osm_id": 12194623363}}, {"type": "Feature", "geometry": {"type": "Point", "coordinates": [120.99679, 14.74789]}, "properties": {"name": "Bignay Health Station", "kind": "hospital", "osm_id": 12496195998}}, {"type": "Feature", "geometry": {"type": "Point", "coordinates": [121.10788, 14.3163]}, "properties": {"name": "City Medical Hospital", "kind": "hospital", "osm_id": 12679914409}}, {"type": "Feature", "geometry": {"type": "Point", "coordinates": [121.13249, 14.75248]}, "properties": {"name": "Northern Tagalog Regional Hospital", "kind": "hospital", "osm_id": 12839109900}}, {"type": "Feature", "geometry": {"type": "Point", "coordinates": [121.05596, 14.58071]}, "properties": {"name": "unnamed", "kind": "hospital", "osm_id": 13508176543}}, {"type": "Feature", "geometry": {"type": "Point", "coordinates": [121.10975, 14.67379]}, "properties": {"name": "St. Mattheus Medical Hospital, Inc.", "kind": "hospital", "osm_id": 14073982156}}, {"type": "Feature", "geometry": {"type": "Point", "coordinates": [121.02448, 14.42782]}, "properties": {"name": "Alabang Medical Center", "kind": "hospital", "osm_id": 23378684}}, {"type": "Feature", "geometry": {"type": "Point", "coordinates": [121.04417, 14.41425]}, "properties": {"name": "Ospital ng Muntinlupa", "kind": "hospital", "osm_id": 23378979}}, {"type": "Feature", "geometry": {"type": "Point", "coordinates": [121.04361, 14.41321]}, "properties": {"name": "Asian Hospital and Medical Center", "kind": "hospital", "osm_id": 23378990}}, {"type": "Feature", "geometry": {"type": "Point", "coordinates": [121.04725, 14.64725]}, "properties": {"name": "National Kidney and Transplant Institute", "kind": "hospital", "osm_id": 25795096}}, {"type": "Feature", "geometry": {"type": "Point", "coordinates": [121.07203, 14.70567]}, "properties": {"name": "Fairview General Hospital", "kind": "hospital", "osm_id": 25943731}}, {"type": "Feature", "geometry": {"type": "Point", "coordinates": [121.06189, 14.54641]}, "properties": {"name": "Ospital ng Makati", "kind": "hospital", "osm_id": 28997817}}, {"type": "Feature", "geometry": {"type": "Point", "coordinates": [121.13146, 14.57094]}, "properties": {"name": "Taytay Emergency Hospital", "kind": "hospital", "osm_id": 29042991}}, {"type": "Feature", "geometry": {"type": "Point", "coordinates": [121.04812, 14.55513]}, "properties": {"name": "St. Luke's Medical Center Global City", "kind": "hospital", "osm_id": 29353952}}, {"type": "Feature", "geometry": {"type": "Point", "coordinates": [121.02138, 14.53765]}, "properties": {"name": "Malibay Substation", "kind": "power_substation", "osm_id": 30331256}}, {"type": "Feature", "geometry": {"type": "Point", "coordinates": [120.99864, 14.58054]}, "properties": {"name": "Paco Substation", "kind": "power_substation", "osm_id": 30618817}}, {"type": "Feature", "geometry": {"type": "Point", "coordinates": [120.99045, 14.61261]}, "properties": {"name": "Sampaloc Substation", "kind": "power_substation", "osm_id": 30679817}}, {"type": "Feature", "geometry": {"type": "Point", "coordinates": [121.11102, 14.58801]}, "properties": {"name": "Cainta Substation", "kind": "power_substation", "osm_id": 30755991}}, {"type": "Feature", "geometry": {"type": "Point", "coordinates": [121.07498, 14.63427]}, "properties": {"name": "Marikina Substation", "kind": "power_substation", "osm_id": 31489448}}, {"type": "Feature", "geometry": {"type": "Point", "coordinates": [121.0132, 14.61765]}, "properties": {"name": "Quezon Institute", "kind": "hospital", "osm_id": 32596622}}, {"type": "Feature", "geometry": {"type": "Point", "coordinates": [121.03025, 14.55155]}, "properties": {"name": "Urdaneta Substation", "kind": "power_substation", "osm_id": 33302915}}, {"type": "Feature", "geometry": {"type": "Point", "coordinates": [121.0206, 14.60667]}, "properties": {"name": "University of the East - Ramon Magsaysay Memorial Medical Center", "kind": "hospital", "osm_id": 35567304}}, {"type": "Feature", "geometry": {"type": "Point", "coordinates": [121.01631, 14.55442]}, "properties": {"name": "Legaspi Substation", "kind": "power_substation", "osm_id": 35583874}}, {"type": "Feature", "geometry": {"type": "Point", "coordinates": [121.03886, 14.7095]}, "properties": {"name": "Novaliches General Hospital", "kind": "hospital", "osm_id": 46332952}}, {"type": "Feature", "geometry": {"type": "Point", "coordinates": [121.02975, 14.5494]}, "properties": {"name": "Meralco Forbes Park Substation", "kind": "power_substation", "osm_id": 47570428}}, {"type": "Feature", "geometry": {"type": "Point", "coordinates": [121.01488, 14.55928]}, "properties": {"name": "Makati Medical Center", "kind": "hospital", "osm_id": 49333995}}, {"type": "Feature", "geometry": {"type": "Point", "coordinates": [121.09844, 14.6361]}, "properties": {"name": "Amang Rodriguez Memorial Medical Center", "kind": "hospital", "osm_id": 54025002}}, {"type": "Feature", "geometry": {"type": "Point", "coordinates": [121.05614, 14.58234]}, "properties": {"name": "Shangri-La Substation", "kind": "power_substation", "osm_id": 60193935}}, {"type": "Feature", "geometry": {"type": "Point", "coordinates": [120.99335, 14.53862]}, "properties": {"name": "unnamed", "kind": "hospital", "osm_id": 69629835}}, {"type": "Feature", "geometry": {"type": "Point", "coordinates": [121.06612, 14.56395]}, "properties": {"name": "Rizal Medical Center", "kind": "hospital", "osm_id": 76344014}}, {"type": "Feature", "geometry": {"type": "Point", "coordinates": [121.001, 14.54932]}, "properties": {"name": "Pasay City General Hospital", "kind": "hospital", "osm_id": 79312531}}, {"type": "Feature", "geometry": {"type": "Point", "coordinates": [121.04998, 14.57695]}, "properties": {"name": "Victor R. Potenciano Medical Center", "kind": "hospital", "osm_id": 82707121}}, {"type": "Feature", "geometry": {"type": "Point", "coordinates": [120.97381, 14.47164]}, "properties": {"name": "Las Pi\u00f1as General Hospital & Satellite Trauma Center", "kind": "hospital", "osm_id": 83534531}}, {"type": "Feature", "geometry": {"type": "Point", "coordinates": [120.99528, 14.556]}, "properties": {"name": "Adventist Medical Center Manila", "kind": "hospital", "osm_id": 84272189}}, {"type": "Feature", "geometry": {"type": "Point", "coordinates": [121.052, 14.63483]}, "properties": {"name": "Armed Forces of the Philippines Medical Center", "kind": "hospital", "osm_id": 85238912}}, {"type": "Feature", "geometry": {"type": "Point", "coordinates": [120.98396, 14.44648]}, "properties": {"name": "Pamplona Substation", "kind": "power_substation", "osm_id": 86812178}}, {"type": "Feature", "geometry": {"type": "Point", "coordinates": [120.98546, 14.58243]}, "properties": {"name": "Medical Center Manila", "kind": "hospital", "osm_id": 87741356}}, {"type": "Feature", "geometry": {"type": "Point", "coordinates": [120.97764, 14.58748]}, "properties": {"name": "AMOSUP Seamen's Hospital", "kind": "hospital", "osm_id": 89564505}}, {"type": "Feature", "geometry": {"type": "Point", "coordinates": [120.98083, 14.57975]}, "properties": {"name": "Ermita Substation", "kind": "power_substation", "osm_id": 90125781}}, {"type": "Feature", "geometry": {"type": "Point", "coordinates": [120.9828, 14.582]}, "properties": {"name": "Manila Doctors Hospital", "kind": "hospital", "osm_id": 90139977}}, {"type": "Feature", "geometry": {"type": "Point", "coordinates": [120.98566, 14.57777]}, "properties": {"name": "Philippine General Hospital", "kind": "hospital", "osm_id": 90316401}}, {"type": "Feature", "geometry": {"type": "Point", "coordinates": [121.07606, 14.331]}, "properties": {"name": "Bi\u00f1an Substation", "kind": "power_substation", "osm_id": 90992537}}, {"type": "Feature", "geometry": {"type": "Point", "coordinates": [121.04792, 14.64191]}, "properties": {"name": "East Avenue Medical Center", "kind": "hospital", "osm_id": 91187868}}, {"type": "Feature", "geometry": {"type": "Point", "coordinates": [121.04842, 14.64392]}, "properties": {"name": "Philippine Heart Center", "kind": "hospital", "osm_id": 91187869}}, {"type": "Feature", "geometry": {"type": "Point", "coordinates": [121.07264, 14.66759]}, "properties": {"name": "General Malvar Hospital", "kind": "hospital", "osm_id": 91599188}}, {"type": "Feature", "geometry": {"type": "Point", "coordinates": [121.03968, 14.4925]}, "properties": {"name": "Sun Valley Substation", "kind": "power_substation", "osm_id": 92831296}}, {"type": "Feature", "geometry": {"type": "Point", "coordinates": [120.97682, 14.4096]}, "properties": {"name": "Saint Michael Medical Hospital", "kind": "hospital", "osm_id": 93309820}}, {"type": "Feature", "geometry": {"type": "Point", "coordinates": [121.04005, 14.65651]}, "properties": {"name": "Veterans Memorial Medical Center", "kind": "hospital", "osm_id": 93806644}}, {"type": "Feature", "geometry": {"type": "Point", "coordinates": [121.06669, 14.66433]}, "properties": {"name": "New Era General Hospital", "kind": "hospital", "osm_id": 96054542}}, {"type": "Feature", "geometry": {"type": "Point", "coordinates": [121.06632, 14.66176]}, "properties": {"name": "U.P. Diliman Substation", "kind": "power_substation", "osm_id": 96332510}}, {"type": "Feature", "geometry": {"type": "Point", "coordinates": [121.04351, 14.64698]}, "properties": {"name": "Jose Fabella Memorial Hospital Annex", "kind": "hospital", "osm_id": 96336385}}, {"type": "Feature", "geometry": {"type": "Point", "coordinates": [121.00335, 14.6278]}, "properties": {"name": "Philippine Orthopedic Hospital", "kind": "hospital", "osm_id": 97073768}}, {"type": "Feature", "geometry": {"type": "Point", "coordinates": [121.13985, 14.57207]}, "properties": {"name": "Dolores Substation", "kind": "power_substation", "osm_id": 97816397}}, {"type": "Feature", "geometry": {"type": "Point", "coordinates": [120.9526, 14.78722]}, "properties": {"name": "Duhat Substation", "kind": "power_substation", "osm_id": 98436507}}, {"type": "Feature", "geometry": {"type": "Point", "coordinates": [121.00922, 14.6206]}, "properties": {"name": "Fe Del Mundo Medical Center", "kind": "hospital", "osm_id": 102682002}}, {"type": "Feature", "geometry": {"type": "Point", "coordinates": [121.11094, 14.65122]}, "properties": {"name": "Garcia General Hospital", "kind": "hospital", "osm_id": 104371863}}, {"type": "Feature", "geometry": {"type": "Point", "coordinates": [120.99389, 14.45562]}, "properties": {"name": "Las Pi\u00f1as Doctors Hospital", "kind": "hospital", "osm_id": 110702706}}, {"type": "Feature", "geometry": {"type": "Point", "coordinates": [121.03345, 14.45836]}, "properties": {"name": "Medical Center Para\u00f1aque", "kind": "hospital", "osm_id": 112176621}}, {"type": "Feature", "geometry": {"type": "Point", "coordinates": [121.01164, 14.61335]}, "properties": {"name": "Santa Mesa Substation", "kind": "power_substation", "osm_id": 112645695}}, {"type": "Feature", "geometry": {"type": "Point", "coordinates": [121.0479, 14.53098]}, "properties": {"name": "Fort Bonifacio General Hospital", "kind": "hospital", "osm_id": 113365744}}, {"type": "Feature", "geometry": {"type": "Point", "coordinates": [121.04589, 14.67488]}, "properties": {"name": "unnamed", "kind": "hospital", "osm_id": 113550717}}, {"type": "Feature", "geometry": {"type": "Point", "coordinates": [121.17076, 14.58192]}, "properties": {"name": "Acop Medical Clinic", "kind": "hospital", "osm_id": 114368100}}, {"type": "Feature", "geometry": {"type": "Point", "coordinates": [120.98192, 14.61411]}, "properties": {"name": "Jose R. Reyes Memorial Medical Center", "kind": "hospital", "osm_id": 115222320}}, {"type": "Feature", "geometry": {"type": "Point", "coordinates": [121.08304, 14.6308]}, "properties": {"name": "unnamed", "kind": "power_substation", "osm_id": 116061783}}, {"type": "Feature", "geometry": {"type": "Point", "coordinates": [121.13148, 14.66154]}, "properties": {"name": "unnamed", "kind": "power_substation", "osm_id": 116129627}}, {"type": "Feature", "geometry": {"type": "Point", "coordinates": [121.12794, 14.66181]}, "properties": {"name": "unnamed", "kind": "power_substation", "osm_id": 116129645}}, {"type": "Feature", "geometry": {"type": "Point", "coordinates": [121.1028, 14.6245]}, "properties": {"name": "Saint Anthony Medical Center", "kind": "hospital", "osm_id": 117630731}}, {"type": "Feature", "geometry": {"type": "Point", "coordinates": [121.03365, 14.6689]}, "properties": {"name": "Metro North Medical Center and Hospital", "kind": "hospital", "osm_id": 117750356}}, {"type": "Feature", "geometry": {"type": "Point", "coordinates": [120.98764, 14.76308]}, "properties": {"name": "Meycauayan Substation", "kind": "power_substation", "osm_id": 119129012}}, {"type": "Feature", "geometry": {"type": "Point", "coordinates": [121.11002, 14.63945]}, "properties": {"name": "SDS Medical Center", "kind": "hospital", "osm_id": 120779195}}, {"type": "Feature", "geometry": {"type": "Point", "coordinates": [121.11721, 14.6441]}, "properties": {"name": "San Ramon Hospital", "kind": "hospital", "osm_id": 121189960}}, {"type": "Feature", "geometry": {"type": "Point", "coordinates": [120.98644, 14.5639]}, "properties": {"name": "Ospital ng Maynila", "kind": "hospital", "osm_id": 122383431}}, {"type": "Feature", "geometry": {"type": "Point", "coordinates": [121.09751, 14.58992]}, "properties": {"name": "Mission Hospital", "kind": "hospital", "osm_id": 123669713}}, {"type": "Feature", "geometry": {"type": "Point", "coordinates": [120.99672, 14.60784]}, "properties": {"name": "Ospital ng Sampaloc", "kind": "hospital", "osm_id": 127202854}}, {"type": "Feature", "geometry": {"type": "Point", "coordinates": [121.02245, 14.59493]}, "properties": {"name": "Our Lady of Lourdes Hospital", "kind": "hospital", "osm_id": 131706185}}, {"type": "Feature", "geometry": {"type": "Point", "coordinates": [120.98253, 14.67269]}, "properties": {"name": "Calalang General Hospital", "kind": "hospital", "osm_id": 134643140}}, {"type": "Feature", "geometry": {"type": "Point", "coordinates": [121.09867, 14.31767]}, "properties": {"name": "New Sinai MDI Hospital", "kind": "hospital", "osm_id": 135387830}}, {"type": "Feature", "geometry": {"type": "Point", "coordinates": [121.05978, 14.61186]}, "properties": {"name": "Camp Aguinaldo Substation", "kind": "power_substation", "osm_id": 136815994}}, {"type": "Feature", "geometry": {"type": "Point", "coordinates": [121.06412, 14.61239]}, "properties": {"name": "CGEA Station Hospital", "kind": "hospital", "osm_id": 136816020}}, {"type": "Feature", "geometry": {"type": "Point", "coordinates": [121.03425, 14.51083]}, "properties": {"name": "Taguig-Pateros District Hospital", "kind": "hospital", "osm_id": 145083991}}, {"type": "Feature", "geometry": {"type": "Point", "coordinates": [120.97379, 14.47742]}, "properties": {"name": "Las Pi\u00f1as Substation", "kind": "power_substation", "osm_id": 149967511}}, {"type": "Feature", "geometry": {"type": "Point", "coordinates": [121.15226, 14.52465]}, "properties": {"name": "San Isidro Hospital - Extension Facility", "kind": "hospital", "osm_id": 152173092}}, {"type": "Feature", "geometry": {"type": "Point", "coordinates": [121.01751, 14.62021]}, "properties": {"name": "De Los Santos Medical Center", "kind": "hospital", "osm_id": 155400231}}, {"type": "Feature", "geometry": {"type": "Point", "coordinates": [120.97963, 14.37378]}, "properties": {"name": "Metro South Medical Center", "kind": "hospital", "osm_id": 158466196}}, {"type": "Feature", "geometry": {"type": "Point", "coordinates": [121.0452, 14.39495]}, "properties": {"name": "Medical Center Muntinlupa", "kind": "hospital", "osm_id": 158976838}}, {"type": "Feature", "geometry": {"type": "Point", "coordinates": [120.97201, 14.59744]}, "properties": {"name": "Justice Jose Abad Santos General Hospital", "kind": "hospital", "osm_id": 161306364}}, {"type": "Feature", "geometry": {"type": "Point", "coordinates": [120.9662, 14.60906]}, "properties": {"name": "Mary Johnston Hospital", "kind": "hospital", "osm_id": 161306372}}, {"type": "Feature", "geometry": {"type": "Point", "coordinates": [120.96488, 14.6011]}, "properties": {"name": "Gat Andres Bonifacio Medical Center", "kind": "hospital", "osm_id": 161306530}}, {"type": "Feature", "geometry": {"type": "Point", "coordinates": [120.97376, 14.6102]}, "properties": {"name": "Tutuban Substation", "kind": "power_substation", "osm_id": 161414200}}, {"type": "Feature", "geometry": {"type": "Point", "coordinates": [121.09469, 14.64218]}, "properties": {"name": "Saint Victoria Hospital", "kind": "hospital", "osm_id": 162045159}}, {"type": "Feature", "geometry": {"type": "Point", "coordinates": [121.10763, 14.65095]}, "properties": {"name": "St. Vincent Hospital", "kind": "hospital", "osm_id": 162639734}}, {"type": "Feature", "geometry": {"type": "Point", "coordinates": [120.86134, 14.40259]}, "properties": {"name": "Rosario Substation", "kind": "power_substation", "osm_id": 169517606}}, {"type": "Feature", "geometry": {"type": "Point", "coordinates": [121.0035, 14.42969]}, "properties": {"name": "Las Pi\u00f1as City Medical Center", "kind": "hospital", "osm_id": 172909311}}, {"type": "Feature", "geometry": {"type": "Point", "coordinates": [120.98046, 14.67806]}, "properties": {"name": "Fatima University Medical Center", "kind": "hospital", "osm_id": 175024244}}, {"type": "Feature", "geometry": {"type": "Point", "coordinates": [120.9207, 14.44897]}, "properties": {"name": "Kawit Lying In Clinic", "kind": "hospital", "osm_id": 180153501}}, {"type": "Feature", "geometry": {"type": "Point", "coordinates": [120.92888, 14.45296]}, "properties": {"name": "Child Specialist and Family Clinic", "kind": "hospital", "osm_id": 180161924}}, {"type": "Feature", "geometry": {"type": "Point", "coordinates": [120.94464, 14.45984]}, "properties": {"name": "MNS Ultrasound", "kind": "hospital", "osm_id": 180161934}}, {"type": "Feature", "geometry": {"type": "Point", "coordinates": [120.98364, 14.48836]}, "properties": {"name": "Our Lady of Peace Hospital", "kind": "hospital", "osm_id": 181985244}}, {"type": "Feature", "geometry": {"type": "Point", "coordinates": [120.97505, 14.60912]}, "properties": {"name": "Palomar Substation", "kind": "power_substation", "osm_id": 182922897}}, {"type": "Feature", "geometry": {"type": "Point", "coordinates": [120.98992, 14.60318]}, "properties": {"name": "Mary Chiles General Hospital", "kind": "hospital", "osm_id": 182994404}}, {"type": "Feature", "geometry": {"type": "Point", "coordinates": [121.12405, 14.62928]}, "properties": {"name": "Antipolo General Hospital", "kind": "hospital", "osm_id": 183018529}}, {"type": "Feature", "geometry": {"type": "Point", "coordinates": [120.99963, 14.59983]}, "properties": {"name": "De Ocampo Memorial Medical Center", "kind": "hospital", "osm_id": 184031593}}, {"type": "Feature", "geometry": {"type": "Point", "coordinates": [121.09923, 14.57244]}, "properties": {"name": "Pasig City General Hospital", "kind": "hospital", "osm_id": 188693881}}, {"type": "Feature", "geometry": {"type": "Point", "coordinates": [120.93431, 14.4063]}, "properties": {"name": "St. Jude Maternity Clinic", "kind": "hospital", "osm_id": 190251511}}, {"type": "Feature", "geometry": {"type": "Point", "coordinates": [121.03168, 14.64125]}, "properties": {"name": "Providence Hospital", "kind": "hospital", "osm_id": 193633009}}, {"type": "Feature", "geometry": {"type": "Point", "coordinates": [121.01831, 14.64142]}, "properties": {"name": "unnamed", "kind": "power_substation", "osm_id": 193633026}}, {"type": "Feature", "geometry": {"type": "Point", "coordinates": [121.11394, 14.58028]}, "properties": {"name": "Cainta Municipal Hospital", "kind": "hospital", "osm_id": 229503729}}, {"type": "Feature", "geometry": {"type": "Point", "coordinates": [121.12531, 14.57384]}, "properties": {"name": "Taytay Doctors Multispecialty Hospital", "kind": "hospital", "osm_id": 229639122}}, {"type": "Feature", "geometry": {"type": "Point", "coordinates": [121.04144, 14.64759]}, "properties": {"name": "Philippine Children's Medical Center", "kind": "hospital", "osm_id": 231404558}}, {"type": "Feature", "geometry": {"type": "Point", "coordinates": [121.14289, 14.72675]}, "properties": {"name": "H-Vill Hospital", "kind": "hospital", "osm_id": 233135828}}, {"type": "Feature", "geometry": {"type": "Point", "coordinates": [120.98563, 14.44829]}, "properties": {"name": "University of Perpetual Help Dalta Medical Center", "kind": "hospital", "osm_id": 239011136}}, {"type": "Feature", "geometry": {"type": "Point", "coordinates": [120.99518, 14.51344]}, "properties": {"name": "unnamed", "kind": "power_substation", "osm_id": 240100505}}, {"type": "Feature", "geometry": {"type": "Point", "coordinates": [120.96877, 14.46287]}, "properties": {"name": "Pamplona Hospital & Medical Center", "kind": "hospital", "osm_id": 240126491}}, {"type": "Feature", "geometry": {"type": "Point", "coordinates": [120.99698, 14.44288]}, "properties": {"name": "Alabang Medical Clinic", "kind": "hospital", "osm_id": 240131999}}, {"type": "Feature", "geometry": {"type": "Point", "coordinates": [121.0654, 14.53087]}, "properties": {"name": "Medical Center Taguig", "kind": "hospital", "osm_id": 244438634}}, {"type": "Feature", "geometry": {"type": "Point", "coordinates": [120.86815, 14.39791]}, "properties": {"name": "Divine Grace Medical Center", "kind": "hospital", "osm_id": 248798960}}, {"type": "Feature", "geometry": {"type": "Point", "coordinates": [121.02348, 14.60661]}, "properties": {"name": "San Juan Medical Center", "kind": "hospital", "osm_id": 255989049}}, {"type": "Feature", "geometry": {"type": "Point", "coordinates": [121.02256, 14.59488]}, "properties": {"name": "Main Building", "kind": "hospital", "osm_id": 255991090}}, {"type": "Feature", "geometry": {"type": "Point", "coordinates": [121.09944, 14.63711]}, "properties": {"name": "VT Maternity Hospital", "kind": "hospital", "osm_id": 256058998}}, {"type": "Feature", "geometry": {"type": "Point", "coordinates": [120.9736, 14.64834]}, "properties": {"name": "Caloocan City Medical Center South", "kind": "hospital", "osm_id": 256339755}}, {"type": "Feature", "geometry": {"type": "Point", "coordinates": [121.05592, 14.36495]}, "properties": {"name": "Jose Amante Hospital City of San Pedro", "kind": "hospital", "osm_id": 257944908}}, {"type": "Feature", "geometry": {"type": "Point", "coordinates": [120.99797, 14.41906]}, "properties": {"name": "Golden Acres Doctors' Hospital", "kind": "hospital", "osm_id": 259579603}}, {"type": "Feature", "geometry": {"type": "Point", "coordinates": [121.02899, 14.63516]}, "properties": {"name": "unnamed", "kind": "power_substation", "osm_id": 260934319}}, {"type": "Feature", "geometry": {"type": "Point", "coordinates": [121.15284, 14.53133]}, "properties": {"name": "Angono Medics Hospital", "kind": "hospital", "osm_id": 261877875}}, {"type": "Feature", "geometry": {"type": "Point", "coordinates": [121.18032, 14.61937]}, "properties": {"name": "Rizal Provincial Hospital System", "kind": "hospital", "osm_id": 262166619}}, {"type": "Feature", "geometry": {"type": "Point", "coordinates": [121.10896, 14.63837]}, "properties": {"name": "Jesus Immaculate Concepcion Hospital", "kind": "hospital", "osm_id": 262308307}}, {"type": "Feature", "geometry": {"type": "Point", "coordinates": [120.89854, 14.41696]}, "properties": {"name": "Kawit Kalayaan Hospital", "kind": "hospital", "osm_id": 262678832}}, {"type": "Feature", "geometry": {"type": "Point", "coordinates": [121.15214, 14.52668]}, "properties": {"name": "Angono General Hospital", "kind": "hospital", "osm_id": 263121475}}, {"type": "Feature", "geometry": {"type": "Point", "coordinates": [121.058, 14.61978]}, "properties": {"name": "Cubao Substation", "kind": "power_substation", "osm_id": 264246780}}, {"type": "Feature", "geometry": {"type": "Point", "coordinates": [121.06607, 14.62194]}, "properties": {"name": "Villarosa Hospital", "kind": "hospital", "osm_id": 264289095}}, {"type": "Feature", "geometry": {"type": "Point", "coordinates": [120.9871, 14.65774]}, "properties": {"name": "Manila Central University Hospital", "kind": "hospital", "osm_id": 265574761}}, {"type": "Feature", "geometry": {"type": "Point", "coordinates": [120.98672, 14.65769]}, "properties": {"name": "Manila Central University Hospital", "kind": "hospital", "osm_id": 265574777}}, {"type": "Feature", "geometry": {"type": "Point", "coordinates": [121.07072, 14.52933]}, "properties": {"name": "Cruz-Rabe Hospital", "kind": "hospital", "osm_id": 273216481}}, {"type": "Feature", "geometry": {"type": "Point", "coordinates": [120.96195, 14.4624]}, "properties": {"name": "Pamplona Medical Clinic", "kind": "hospital", "osm_id": 273418582}}, {"type": "Feature", "geometry": {"type": "Point", "coordinates": [120.96067, 14.46263]}, "properties": {"name": "Christ The King General Hospital", "kind": "hospital", "osm_id": 273420439}}, {"type": "Feature", "geometry": {"type": "Point", "coordinates": [120.99587, 14.52991]}, "properties": {"name": "Sta. Rita De Baclaran General Hospital", "kind": "hospital", "osm_id": 273430418}}, {"type": "Feature", "geometry": {"type": "Point", "coordinates": [121.06533, 14.3469]}, "properties": {"name": "Westlake Medical Center", "kind": "hospital", "osm_id": 281267713}}, {"type": "Feature", "geometry": {"type": "Point", "coordinates": [121.05829, 14.35906]}, "properties": {"name": "Divine Mercy Hospital", "kind": "hospital", "osm_id": 282622943}}, {"type": "Feature", "geometry": {"type": "Point", "coordinates": [120.95525, 14.75158]}, "properties": {"name": "Nazarenus Hospital", "kind": "hospital", "osm_id": 282854038}}, {"type": "Feature", "geometry": {"type": "Point", "coordinates": [121.06333, 14.62704]}, "properties": {"name": "World Citi Medical Center", "kind": "hospital", "osm_id": 283053426}}, {"type": "Feature", "geometry": {"type": "Point", "coordinates": [120.89189, 14.4775]}, "properties": {"name": "Bautista Hospital", "kind": "hospital", "osm_id": 284348300}}, {"type": "Feature", "geometry": {"type": "Point", "coordinates": [120.88188, 14.46337]}, "properties": {"name": "Cavite Medical Center", "kind": "hospital", "osm_id": 284349392}}, {"type": "Feature", "geometry": {"type": "Point", "coordinates": [120.98834, 14.61339]}, "properties": {"name": "Perpetual Help Hospital", "kind": "hospital", "osm_id": 287975636}}, {"type": "Feature", "geometry": {"type": "Point", "coordinates": [120.95641, 14.6943]}, "properties": {"name": "San Lorenzo Ruiz General Hospital", "kind": "hospital", "osm_id": 288185193}}, {"type": "Feature", "geometry": {"type": "Point", "coordinates": [120.94586, 14.66014]}, "properties": {"name": "Navotas City Hospital", "kind": "hospital", "osm_id": 288588367}}, {"type": "Feature", "geometry": {"type": "Point", "coordinates": [120.99434, 14.56584]}, "properties": {"name": "Malate Substation", "kind": "power_substation", "osm_id": 291478089}}, {"type": "Feature", "geometry": {"type": "Point", "coordinates": [120.98928, 14.61403]}, "properties": {"name": "Hospital of the Infant Jesus Medical Center", "kind": "hospital", "osm_id": 291642917}}, {"type": "Feature", "geometry": {"type": "Point", "coordinates": [120.95798, 14.73719]}, "properties": {"name": "The Lord's Hospital", "kind": "hospital", "osm_id": 292038834}}, {"type": "Feature", "geometry": {"type": "Point", "coordinates": [120.95746, 14.73391]}, "properties": {"name": "St. Francis Hospital", "kind": "hospital", "osm_id": 292038922}}, {"type": "Feature", "geometry": {"type": "Point", "coordinates": [121.1772, 14.5884]}, "properties": {"name": "Soriano Leyble Medical & Maternity Hospital", "kind": "hospital", "osm_id": 297887294}}, {"type": "Feature", "geometry": {"type": "Point", "coordinates": [121.04747, 14.73827]}, "properties": {"name": "Nodado General Hospital", "kind": "hospital", "osm_id": 299406484}}, {"type": "Feature", "geometry": {"type": "Point", "coordinates": [121.01088, 14.52539]}, "properties": {"name": "NAIA Substation", "kind": "power_substation", "osm_id": 300425719}}, {"type": "Feature", "geometry": {"type": "Point", "coordinates": [120.94775, 14.7612]}, "properties": {"name": "St. Michael Hospital", "kind": "hospital", "osm_id": 302984763}}, {"type": "Feature", "geometry": {"type": "Point", "coordinates": [121.01771, 14.58409]}, "properties": {"name": "Trinity Woman and Child Hospital", "kind": "hospital", "osm_id": 303409437}}, {"type": "Feature", "geometry": {"type": "Point", "coordinates": [121.01616, 14.58343]}, "properties": {"name": "Santa Ana Hospital", "kind": "hospital", "osm_id": 303409449}}, {"type": "Feature", "geometry": {"type": "Point", "coordinates": [120.87991, 14.79291]}, "properties": {"name": "G. H. del Pilar Hospital", "kind": "hospital", "osm_id": 303419303}}, {"type": "Feature", "geometry": {"type": "Point", "coordinates": [120.93291, 14.78394]}, "properties": {"name": "Mount Carmel Medical Center", "kind": "hospital", "osm_id": 303750180}}, {"type": "Feature", "geometry": {"type": "Point", "coordinates": [121.08469, 14.76608]}, "properties": {"name": "North Caloocan Doctors Hospital", "kind": "hospital", "osm_id": 304117640}}, {"type": "Feature", "geometry": {"type": "Point", "coordinates": [120.99052, 14.49803]}, "properties": {"name": "Soccoro Clinic", "kind": "hospital", "osm_id": 308989457}}, {"type": "Feature", "geometry": {"type": "Point", "coordinates": [121.00396, 14.60894]}, "properties": {"name": "St. Francis General Hospital", "kind": "hospital", "osm_id": 310796627}}, {"type": "Feature", "geometry": {"type": "Point", "coordinates": [121.01957, 14.46443]}, "properties": {"name": "Unihealth-Paran\u0303aque Hospital and Medical Center", "kind": "hospital", "osm_id": 311349240}}, {"type": "Feature", "geometry": {"type": "Point", "coordinates": [120.97591, 14.63856]}, "properties": {"name": "Martinez Hospital", "kind": "hospital", "osm_id": 312353855}}, {"type": "Feature", "geometry": {"type": "Point", "coordinates": [120.95754, 14.64916]}, "properties": {"name": "unnamed", "kind": "hospital", "osm_id": 312773318}}, {"type": "Feature", "geometry": {"type": "Point", "coordinates": [120.86322, 14.3967]}, "properties": {"name": "General Trias Maternity Hospital", "kind": "hospital", "osm_id": 316239683}}, {"type": "Feature", "geometry": {"type": "Point", "coordinates": [121.17715, 14.57435]}, "properties": {"name": "Antipolo Doctors Hospital", "kind": "hospital", "osm_id": 316651481}}, {"type": "Feature", "geometry": {"type": "Point", "coordinates": [120.86031, 14.41432]}, "properties": {"name": "Magellan Cogeneration", "kind": "power_plant", "osm_id": 316944399}}, {"type": "Feature", "geometry": {"type": "Point", "coordinates": [121.01558, 14.56373]}, "properties": {"name": "Kamagong Substation", "kind": "power_substation", "osm_id": 318895102}}, {"type": "Feature", "geometry": {"type": "Point", "coordinates": [121.11052, 14.31875]}, "properties": {"name": "Santa Rosa Community Hospital", "kind": "hospital", "osm_id": 319394517}}, {"type": "Feature", "geometry": {"type": "Point", "coordinates": [121.04759, 14.33165]}, "properties": {"name": "Unihealth Southwoods Hospital and Medical Center", "kind": "hospital", "osm_id": 321475703}}, {"type": "Feature", "geometry": {"type": "Point", "coordinates": [120.99689, 14.47931]}, "properties": {"name": "Olivarez General Hospital", "kind": "hospital", "osm_id": 322756911}}, {"type": "Feature", "geometry": {"type": "Point", "coordinates": [121.09215, 14.32597]}, "properties": {"name": "Binan Doctor's Hospital", "kind": "hospital", "osm_id": 325385847}}, {"type": "Feature", "geometry": {"type": "Point", "coordinates": [121.05816, 14.34236]}, "properties": {"name": "Family Care Hospital", "kind": "hospital", "osm_id": 327891825}}, {"type": "Feature", "geometry": {"type": "Point", "coordinates": [121.05815, 14.34202]}, "properties": {"name": "Evangelista Multi Specialty Hospital", "kind": "hospital", "osm_id": 327891826}}, {"type": "Feature", "geometry": {"type": "Point", "coordinates": [121.17189, 14.58009]}, "properties": {"name": "Unciano Medical Center", "kind": "hospital", "osm_id": 329654541}}, {"type": "Feature", "geometry": {"type": "Point", "coordinates": [121.01623, 14.60071]}, "properties": {"name": "Unciano Paramedical General Hospital", "kind": "hospital", "osm_id": 332083684}}, {"type": "Feature", "geometry": {"type": "Point", "coordinates": [121.08533, 14.33045]}, "properties": {"name": "Perpetual Help Medical Center - Bi\u00f1an", "kind": "hospital", "osm_id": 335393560}}, {"type": "Feature", "geometry": {"type": "Point", "coordinates": [121.05925, 14.55218]}, "properties": {"name": "FBGC GIS Substation", "kind": "power_substation", "osm_id": 341383347}}, {"type": "Feature", "geometry": {"type": "Point", "coordinates": [121.21924, 14.3383]}, "properties": {"name": "San Damiano Clinic", "kind": "hospital", "osm_id": 343122971}}, {"type": "Feature", "geometry": {"type": "Point", "coordinates": [121.07844, 14.56541]}, "properties": {"name": "Javillonar Clinic and Hospital", "kind": "hospital", "osm_id": 344562174}}, {"type": "Feature", "geometry": {"type": "Point", "coordinates": [121.12224, 14.62541]}, "properties": {"name": "Cornel Medical Center", "kind": "hospital", "osm_id": 353772389}}, {"type": "Feature", "geometry": {"type": "Point", "coordinates": [121.08532, 14.57582]}, "properties": {"name": "TriCity Medical Center", "kind": "hospital", "osm_id": 353969645}}, {"type": "Feature", "geometry": {"type": "Point", "coordinates": [120.98877, 14.76442]}, "properties": {"name": "Marymount Hospital", "kind": "hospital", "osm_id": 354429846}}, {"type": "Feature", "geometry": {"type": "Point", "coordinates": [121.00069, 14.59372]}, "properties": {"name": "Presidential Security Group Station Hospital", "kind": "hospital", "osm_id": 360817932}}, {"type": "Feature", "geometry": {"type": "Point", "coordinates": [120.99636, 14.44331]}, "properties": {"name": "Pope John Paul II Hospital and Medical Center", "kind": "hospital", "osm_id": 363541233}}, {"type": "Feature", "geometry": {"type": "Point", "coordinates": [121.09798, 14.58983]}, "properties": {"name": "Mission Medical Plaza", "kind": "hospital", "osm_id": 372781921}}, {"type": "Feature", "geometry": {"type": "Point", "coordinates": [120.98076, 14.61383]}, "properties": {"name": "San Lazaro Hospital", "kind": "hospital", "osm_id": 384932890}}, {"type": "Feature", "geometry": {"type": "Point", "coordinates": [121.0917, 14.61218]}, "properties": {"name": "St. Camillus Medical Center", "kind": "hospital", "osm_id": 384934616}}, {"type": "Feature", "geometry": {"type": "Point", "coordinates": [121.09622, 14.62004]}, "properties": {"name": "Salve Regina General Hospital", "kind": "hospital", "osm_id": 384934859}}, {"type": "Feature", "geometry": {"type": "Point", "coordinates": [121.1698, 14.58952]}, "properties": {"name": "Clinica Antipolo Hospital and Wellness Center", "kind": "hospital", "osm_id": 385381471}}, {"type": "Feature", "geometry": {"type": "Point", "coordinates": [121.07432, 14.3371]}, "properties": {"name": "Ospital ng Bi\u00f1an", "kind": "hospital", "osm_id": 387149379}}, {"type": "Feature", "geometry": {"type": "Point", "coordinates": [121.02803, 14.44057]}, "properties": {"name": "unnamed", "kind": "hospital", "osm_id": 392895805}}, {"type": "Feature", "geometry": {"type": "Point", "coordinates": [121.16999, 14.5025]}, "properties": {"name": "Binangonan Lakeview Hospital", "kind": "hospital", "osm_id": 397725310}}, {"type": "Feature", "geometry": {"type": "Point", "coordinates": [120.91447, 14.48313]}, "properties": {"name": "Cavite Naval Hospital", "kind": "hospital", "osm_id": 404525070}}, {"type": "Feature", "geometry": {"type": "Point", "coordinates": [121.21985, 14.54772]}, "properties": {"name": "St. Therese Hopital", "kind": "hospital", "osm_id": 405587210}}, {"type": "Feature", "geometry": {"type": "Point", "coordinates": [121.06506, 14.58909]}, "properties": {"name": "Meralco Complex Substation", "kind": "power_substation", "osm_id": 406977698}}, {"type": "Feature", "geometry": {"type": "Point", "coordinates": [121.0631, 14.35332]}, "properties": {"name": "San Pedro Substation", "kind": "power_substation", "osm_id": 408865831}}, {"type": "Feature", "geometry": {"type": "Point", "coordinates": [121.05492, 14.58393]}, "properties": {"name": "Mandaluyong Substation", "kind": "power_substation", "osm_id": 412906998}}, {"type": "Feature", "geometry": {"type": "Point", "coordinates": [120.96766, 14.41985]}, "properties": {"name": "Bacoor Doctors Medical Center", "kind": "hospital", "osm_id": 416632976}}, {"type": "Feature", "geometry": {"type": "Point", "coordinates": [120.93154, 14.32936]}, "properties": {"name": "Leonicio J. Mangubat Memorial Health Center", "kind": "hospital", "osm_id": 424875509}}, {"type": "Feature", "geometry": {"type": "Point", "coordinates": [120.94629, 14.43255]}, "properties": {"name": "Imus Family Hospital", "kind": "hospital", "osm_id": 425075417}}, {"type": "Feature", "geometry": {"type": "Point", "coordinates": [120.96395, 14.3174]}, "properties": {"name": "unnamed", "kind": "hospital", "osm_id": 426729678}}, {"type": "Feature", "geometry": {"type": "Point", "coordinates": [120.96406, 14.31746]}, "properties": {"name": "unnamed", "kind": "hospital", "osm_id": 426729720}}, {"type": "Feature", "geometry": {"type": "Point", "coordinates": [121.05822, 14.32048]}, "properties": {"name": "ROHM Substation", "kind": "power_substation", "osm_id": 439436826}}, {"type": "Feature", "geometry": {"type": "Point", "coordinates": [121.06672, 14.34845]}, "properties": {"name": "unnamed", "kind": "power_substation", "osm_id": 440474410}}, {"type": "Feature", "geometry": {"type": "Point", "coordinates": [121.03743, 14.56589]}, "properties": {"name": "Rockwell Substation", "kind": "power_substation", "osm_id": 440588497}}, {"type": "Feature", "geometry": {"type": "Point", "coordinates": [120.97543, 14.6229]}, "properties": {"name": "Santa Cruz Substation", "kind": "power_substation", "osm_id": 440593524}}, {"type": "Feature", "geometry": {"type": "Point", "coordinates": [121.05205, 14.44962]}, "properties": {"name": "Gardner Substation", "kind": "power_substation", "osm_id": 441813417}}, {"type": "Feature", "geometry": {"type": "Point", "coordinates": [121.05247, 14.44515]}, "properties": {"name": "Muntinlupa Substation", "kind": "power_substation", "osm_id": 441813430}}, {"type": "Feature", "geometry": {"type": "Point", "coordinates": [121.05965, 14.51332]}, "properties": {"name": "Recuenco General Hospital", "kind": "hospital", "osm_id": 443525352}}, {"type": "Feature", "geometry": {"type": "Point", "coordinates": [120.97958, 14.53048]}, "properties": {"name": "Central Business Park Substation", "kind": "power_substation", "osm_id": 445259991}}, {"type": "Feature", "geometry": {"type": "Point", "coordinates": [121.10378, 14.303]}, "properties": {"name": "unnamed", "kind": "power_substation", "osm_id": 447794410}}, {"type": "Feature", "geometry": {"type": "Point", "coordinates": [121.03651, 14.424]}, "properties": {"name": "Filinvest Alabang GIS Substation", "kind": "power_substation", "osm_id": 448145161}}, {"type": "Feature", "geometry": {"type": "Point", "coordinates": [121.00117, 14.6389]}, "properties": {"name": "Banawe Substation", "kind": "power_substation", "osm_id": 450041326}}, {"type": "Feature", "geometry": {"type": "Point", "coordinates": [121.01189, 14.3765]}, "properties": {"name": "unnamed", "kind": "power_substation", "osm_id": 456172602}}, {"type": "Feature", "geometry": {"type": "Point", "coordinates": [120.93804, 14.3285]}, "properties": {"name": "GMF Hospital", "kind": "hospital", "osm_id": 456292430}}, {"type": "Feature", "geometry": {"type": "Point", "coordinates": [121.12635, 14.62269]}, "properties": {"name": "Masinag Substation", "kind": "power_substation", "osm_id": 458977340}}, {"type": "Feature", "geometry": {"type": "Point", "coordinates": [121.1863, 14.48895]}, "properties": {"name": "Rizal Provincial Hospital - Binangonan Annex", "kind": "hospital", "osm_id": 458980559}}, {"type": "Feature", "geometry": {"type": "Point", "coordinates": [121.04666, 14.35476]}, "properties": {"name": "unnamed", "kind": "power_substation", "osm_id": 464143008}}, {"type": "Feature", "geometry": {"type": "Point", "coordinates": [121.10669, 14.65704]}, "properties": {"name": "De Guzman Clinic", "kind": "hospital", "osm_id": 477645762}}, {"type": "Feature", "geometry": {"type": "Point", "coordinates": [121.05209, 14.60962]}, "properties": {"name": "Philippine National Police General Hospital", "kind": "hospital", "osm_id": 486970925}}, {"type": "Feature", "geometry": {"type": "Point", "coordinates": [121.07055, 14.79826]}, "properties": {"name": "Skyline Hospital and Medical Center", "kind": "hospital", "osm_id": 488704414}}, {"type": "Feature", "geometry": {"type": "Point", "coordinates": [120.98449, 14.51951]}, "properties": {"name": "PAGCOR Substation", "kind": "power_substation", "osm_id": 489411342}}, {"type": "Feature", "geometry": {"type": "Point", "coordinates": [120.98941, 14.5884]}, "properties": {"name": "Tegen Substation", "kind": "power_substation", "osm_id": 489733574}}, {"type": "Feature", "geometry": {"type": "Point", "coordinates": [121.00104, 14.37562]}, "properties": {"name": "South City Hospital and Medical Center", "kind": "hospital", "osm_id": 497156008}}, {"type": "Feature", "geometry": {"type": "Point", "coordinates": [121.04664, 14.74015]}, "properties": {"name": "Bernardino General Hospital 2", "kind": "hospital", "osm_id": 497953970}}, {"type": "Feature", "geometry": {"type": "Point", "coordinates": [120.99965, 14.42416]}, "properties": {"name": "Cabinte Maternity & Children's Hospital", "kind": "hospital", "osm_id": 505988905}}, {"type": "Feature", "geometry": {"type": "Point", "coordinates": [120.98939, 14.61579]}, "properties": {"name": "Saint Jude Hospital and Medical Center", "kind": "hospital", "osm_id": 506543661}}, {"type": "Feature", "geometry": {"type": "Point", "coordinates": [120.97117, 14.46009]}, "properties": {"name": "Las Pi\u00f1as Substation", "kind": "power_substation", "osm_id": 508441360}}, {"type": "Feature", "geometry": {"type": "Point", "coordinates": [121.0236, 14.65939]}, "properties": {"name": "Dr. Montano G. Ramos General Hospital", "kind": "hospital", "osm_id": 525405920}}, {"type": "Feature", "geometry": {"type": "Point", "coordinates": [121.0502, 14.75615]}, "properties": {"name": "Caloocan City North Medical Center", "kind": "hospital", "osm_id": 528989939}}, {"type": "Feature", "geometry": {"type": "Point", "coordinates": [121.04406, 14.7633]}, "properties": {"name": "Nodado General Hospital", "kind": "hospital", "osm_id": 530280724}}, {"type": "Feature", "geometry": {"type": "Point", "coordinates": [121.04247, 14.76123]}, "properties": {"name": "Camarin Substation", "kind": "power_substation", "osm_id": 530281328}}, {"type": "Feature", "geometry": {"type": "Point", "coordinates": [121.10026, 14.32017]}, "properties": {"name": "Marian Hospital", "kind": "hospital", "osm_id": 531872352}}, {"type": "Feature", "geometry": {"type": "Point", "coordinates": [121.04306, 14.76859]}, "properties": {"name": "National Mental Hospital", "kind": "hospital", "osm_id": 534775070}}, {"type": "Feature", "geometry": {"type": "Point", "coordinates": [121.06565, 14.76671]}, "properties": {"name": "Doctor Jose N. Rodriguez Memorial Hospital & Sanitarium", "kind": "hospital", "osm_id": 534857378}}, {"type": "Feature", "geometry": {"type": "Point", "coordinates": [121.03903, 14.7193]}, "properties": {"name": "Hope General Hopital", "kind": "hospital", "osm_id": 541799981}}, {"type": "Feature", "geometry": {"type": "Point", "coordinates": [121.0206, 14.67939]}, "properties": {"name": "Casaul General Hospital", "kind": "hospital", "osm_id": 541820647}}, {"type": "Feature", "geometry": {"type": "Point", "coordinates": [121.09798, 14.32075]}, "properties": {"name": "unnamed", "kind": "power_substation", "osm_id": 542408247}}, {"type": "Feature", "geometry": {"type": "Point", "coordinates": [120.93741, 14.78275]}, "properties": {"name": "Bocaue Substation", "kind": "power_substation", "osm_id": 542766319}}, {"type": "Feature", "geometry": {"type": "Point", "coordinates": [120.95057, 14.75963]}, "properties": {"name": "Saog Substation", "kind": "power_substation", "osm_id": 542773481}}, {"type": "Feature", "geometry": {"type": "Point", "coordinates": [121.10786, 14.31631]}, "properties": {"name": "Citymedic Hospital", "kind": "hospital", "osm_id": 542936032}}, {"type": "Feature", "geometry": {"type": "Point", "coordinates": [120.94247, 14.67702]}, "properties": {"name": "Banaag Dental Clinic", "kind": "hospital", "osm_id": 549330479}}, {"type": "Feature", "geometry": {"type": "Point", "coordinates": [120.94772, 14.66751]}, "properties": {"name": "QuintoPolyMedic", "kind": "hospital", "osm_id": 549332778}}, {"type": "Feature", "geometry": {"type": "Point", "coordinates": [121.02022, 14.3239]}, "properties": {"name": "GMA Substation", "kind": "power_substation", "osm_id": 549844472}}, {"type": "Feature", "geometry": {"type": "Point", "coordinates": [121.01233, 14.61651]}, "properties": {"name": "Quezon Institute Compound", "kind": "hospital", "osm_id": 560063538}}, {"type": "Feature", "geometry": {"type": "Point", "coordinates": [121.11799, 14.58597]}, "properties": {"name": "Ortigas Hospital and Healthcare Center", "kind": "hospital", "osm_id": 561507712}}, {"type": "Feature", "geometry": {"type": "Point", "coordinates": [121.1031, 14.61272]}, "properties": {"name": "Arnaiz Hospital", "kind": "hospital", "osm_id": 569368253}}, {"type": "Feature", "geometry": {"type": "Point", "coordinates": [120.95829, 14.68492]}, "properties": {"name": "unnamed", "kind": "power_plant", "osm_id": 571889596}}, {"type": "Feature", "geometry": {"type": "Point", "coordinates": [120.95058, 14.65717]}, "properties": {"name": "Ospital ng Malabon", "kind": "hospital", "osm_id": 574920880}}, {"type": "Feature", "geometry": {"type": "Point", "coordinates": [120.93965, 14.34858]}, "properties": {"name": "Emilio Aguinaldo College Medical Center-Cavite", "kind": "hospital", "osm_id": 575166088}}, {"type": "Feature", "geometry": {"type": "Point", "coordinates": [120.96307, 14.63502]}, "properties": {"name": "Tondo Medical Center", "kind": "hospital", "osm_id": 578433431}}, {"type": "Feature", "geometry": {"type": "Point", "coordinates": [121.02452, 14.48834]}, "properties": {"name": "Ospital ng Para\u00f1aque - District II", "kind": "hospital", "osm_id": 580507735}}, {"type": "Feature", "geometry": {"type": "Point", "coordinates": [121.08819, 14.54613]}, "properties": {"name": "Taguig Substation", "kind": "power_substation", "osm_id": 583632006}}, {"type": "Feature", "geometry": {"type": "Point", "coordinates": [121.11556, 14.68537]}, "properties": {"name": "San Mateo Medical Center", "kind": "hospital", "osm_id": 591364370}}, {"type": "Feature", "geometry": {"type": "Point", "coordinates": [121.06916, 14.73573]}, "properties": {"name": "San Lorenzo Hospital", "kind": "hospital", "osm_id": 591766108}}, {"type": "Feature", "geometry": {"type": "Point", "coordinates": [121.03496, 14.61128]}, "properties": {"name": "Valencia Substation", "kind": "power_substation", "osm_id": 617091162}}, {"type": "Feature", "geometry": {"type": "Point", "coordinates": [120.97975, 14.65043]}, "properties": {"name": "Grace Park Substation", "kind": "power_substation", "osm_id": 617091970}}, {"type": "Feature", "geometry": {"type": "Point", "coordinates": [121.20087, 14.56816]}, "properties": {"name": "New Teresa Substation", "kind": "power_substation", "osm_id": 617095389}}, {"type": "Feature", "geometry": {"type": "Point", "coordinates": [120.95536, 14.63935]}, "properties": {"name": "Navotas Substation", "kind": "power_substation", "osm_id": 638531784}}, {"type": "Feature", "geometry": {"type": "Point", "coordinates": [121.06641, 14.57141]}, "properties": {"name": "Hillcrest Substation", "kind": "power_substation", "osm_id": 658030273}}, {"type": "Feature", "geometry": {"type": "Point", "coordinates": [121.12616, 14.65769]}, "properties": {"name": "Parang Substation", "kind": "power_substation", "osm_id": 658285091}}, {"type": "Feature", "geometry": {"type": "Point", "coordinates": [120.99574, 14.71692]}, "properties": {"name": "Bagbaguin Substation", "kind": "power_substation", "osm_id": 658601412}}, {"type": "Feature", "geometry": {"type": "Point", "coordinates": [121.01049, 14.71134]}, "properties": {"name": "Sitio Gitna Substation", "kind": "power_substation", "osm_id": 658601413}}, {"type": "Feature", "geometry": {"type": "Point", "coordinates": [121.02232, 14.71406]}, "properties": {"name": "Kaybiga Substation", "kind": "power_substation", "osm_id": 658650696}}, {"type": "Feature", "geometry": {"type": "Point", "coordinates": [120.95733, 14.71526]}, "properties": {"name": "Allied Care Experts Medical Center Valenzuela", "kind": "hospital", "osm_id": 658684225}}, {"type": "Feature", "geometry": {"type": "Point", "coordinates": [120.96607, 14.71103]}, "properties": {"name": "Veinte Reales Substation", "kind": "power_substation", "osm_id": 659226728}}, {"type": "Feature", "geometry": {"type": "Point", "coordinates": [121.22824, 14.63383]}, "properties": {"name": "Antipolo Hospital System", "kind": "hospital", "osm_id": 673941105}}, {"type": "Feature", "geometry": {"type": "Point", "coordinates": [121.05178, 14.3366]}, "properties": {"name": "Southwoods Substation", "kind": "power_substation", "osm_id": 702116067}}, {"type": "Feature", "geometry": {"type": "Point", "coordinates": [121.0761, 14.66839]}, "properties": {"name": "Diliman Doctors Hospital", "kind": "hospital", "osm_id": 704249058}}, {"type": "Feature", "geometry": {"type": "Point", "coordinates": [121.03166, 14.53028]}, "properties": {"name": "Philippine Navy Hospital", "kind": "hospital", "osm_id": 741963839}}, {"type": "Feature", "geometry": {"type": "Point", "coordinates": [121.09577, 14.59202]}, "properties": {"name": "Holylife Hospital", "kind": "hospital", "osm_id": 767425252}}, {"type": "Feature", "geometry": {"type": "Point", "coordinates": [120.99115, 14.50044]}, "properties": {"name": "Ospital ng Para\u00f1aque", "kind": "hospital", "osm_id": 775154939}}, {"type": "Feature", "geometry": {"type": "Point", "coordinates": [121.03485, 14.7002]}, "properties": {"name": "Bernardino General Hospital", "kind": "hospital", "osm_id": 781507514}}, {"type": "Feature", "geometry": {"type": "Point", "coordinates": [121.09226, 14.60085]}, "properties": {"name": "Pasig Doctors Medical Center", "kind": "hospital", "osm_id": 781515671}}, {"type": "Feature", "geometry": {"type": "Point", "coordinates": [120.96999, 14.45905]}, "properties": {"name": "Christ the King Medical Center", "kind": "hospital", "osm_id": 784480740}}, {"type": "Feature", "geometry": {"type": "Point", "coordinates": [121.0891, 14.6861]}, "properties": {"name": "Rosario Maclang Bautista General Hospital", "kind": "hospital", "osm_id": 784554612}}, {"type": "Feature", "geometry": {"type": "Point", "coordinates": [120.98289, 14.45019]}, "properties": {"name": "Las Pi\u00f1as City Health Office", "kind": "hospital", "osm_id": 784855136}}, {"type": "Feature", "geometry": {"type": "Point", "coordinates": [121.00166, 14.58804]}, "properties": {"name": "Ygeia Medical Center, Inc.", "kind": "hospital", "osm_id": 786331536}}, {"type": "Feature", "geometry": {"type": "Point", "coordinates": [121.08465, 14.59011]}, "properties": {"name": "Alfonso Specialist Hospital", "kind": "hospital", "osm_id": 786370497}}, {"type": "Feature", "geometry": {"type": "Point", "coordinates": [120.97831, 14.62599]}, "properties": {"name": "Ospital ng Tondo", "kind": "hospital", "osm_id": 786370974}}, {"type": "Feature", "geometry": {"type": "Point", "coordinates": [120.88993, 14.38117]}, "properties": {"name": "Mama Rachel Hospital of Mercy Inc.", "kind": "hospital", "osm_id": 786963232}}, {"type": "Feature", "geometry": {"type": "Point", "coordinates": [120.98928, 14.43387]}, "properties": {"name": "King of Kings Servant Healer Medical Clinic", "kind": "hospital", "osm_id": 787782007}}, {"type": "Feature", "geometry": {"type": "Point", "coordinates": [121.0323, 14.73725]}, "properties": {"name": "San Lorenzo Hospital", "kind": "hospital", "osm_id": 796759425}}, {"type": "Feature", "geometry": {"type": "Point", "coordinates": [121.04939, 14.37095]}, "properties": {"name": "Beato-Cauilan Hospital", "kind": "hospital", "osm_id": 797785059}}, {"type": "Feature", "geometry": {"type": "Point", "coordinates": [121.09117, 14.70874]}, "properties": {"name": "Commonwealth GIS Substation", "kind": "power_substation", "osm_id": 800186096}}, {"type": "Feature", "geometry": {"type": "Point", "coordinates": [120.99313, 14.48864]}, "properties": {"name": "The Premier Medical Center", "kind": "hospital", "osm_id": 804161688}}, {"type": "Feature", "geometry": {"type": "Point", "coordinates": [120.97848, 14.6096]}, "properties": {"name": "Metropolitan Medical Center", "kind": "hospital", "osm_id": 806655759}}, {"type": "Feature", "geometry": {"type": "Point", "coordinates": [121.15314, 14.5257]}, "properties": {"name": "San Isidro Hospital", "kind": "hospital", "osm_id": 807314859}}, {"type": "Feature", "geometry": {"type": "Point", "coordinates": [121.12577, 14.62475]}, "properties": {"name": "Blessed Trinity Hospital", "kind": "hospital", "osm_id": 836344280}}, {"type": "Feature", "geometry": {"type": "Point", "coordinates": [121.0235, 14.62288]}, "properties": {"name": "St. Luke's Medical Center", "kind": "hospital", "osm_id": 836960349}}, {"type": "Feature", "geometry": {"type": "Point", "coordinates": [121.009, 14.58089]}, "properties": {"name": "Santa Ana Substation", "kind": "power_substation", "osm_id": 838900324}}, {"type": "Feature", "geometry": {"type": "Point", "coordinates": [121.03797, 14.62907]}, "properties": {"name": "Kamuning Substation", "kind": "power_substation", "osm_id": 839789680}}, {"type": "Feature", "geometry": {"type": "Point", "coordinates": [121.04402, 14.72329]}, "properties": {"name": "Cruz-Dalida Hospital", "kind": "hospital", "osm_id": 847013665}}, {"type": "Feature", "geometry": {"type": "Point", "coordinates": [121.15642, 14.52071]}, "properties": {"name": "Pag-Asa Hospital", "kind": "hospital", "osm_id": 859800364}}, {"type": "Feature", "geometry": {"type": "Point", "coordinates": [121.11753, 14.69359]}, "properties": {"name": "San Mateo Doctors", "kind": "hospital", "osm_id": 866859679}}, {"type": "Feature", "geometry": {"type": "Point", "coordinates": [121.08567, 14.52516]}, "properties": {"name": "Taguig EHV Substation", "kind": "power_substation", "osm_id": 880523791}}, {"type": "Feature", "geometry": {"type": "Point", "coordinates": [120.98053, 14.46868]}, "properties": {"name": "A. Zarate General Hospital", "kind": "hospital", "osm_id": 890866017}}, {"type": "Feature", "geometry": {"type": "Point", "coordinates": [121.03208, 14.67053]}, "properties": {"name": "Dr. Montano G. Ramos General Hospital", "kind": "hospital", "osm_id": 923686671}}, {"type": "Feature", "geometry": {"type": "Point", "coordinates": [121.1141, 14.58261]}, "properties": {"name": "Metro Rizal Doctors Hospital", "kind": "hospital", "osm_id": 925788657}}, {"type": "Feature", "geometry": {"type": "Point", "coordinates": [120.96325, 14.69559]}, "properties": {"name": "Valenzuela Citicare Medical Center", "kind": "hospital", "osm_id": 930226857}}, {"type": "Feature", "geometry": {"type": "Point", "coordinates": [121.02252, 14.6341]}, "properties": {"name": "Capitol Medical Center", "kind": "hospital", "osm_id": 933223291}}, {"type": "Feature", "geometry": {"type": "Point", "coordinates": [120.94054, 14.41293]}, "properties": {"name": "Paredes Medical Center & Hospital", "kind": "hospital", "osm_id": 941848364}}, {"type": "Feature", "geometry": {"type": "Point", "coordinates": [121.04775, 14.76264]}, "properties": {"name": "Barangay 174 Health Center and Lying In", "kind": "hospital", "osm_id": 942891048}}, {"type": "Feature", "geometry": {"type": "Point", "coordinates": [121.2394, 14.51434]}, "properties": {"name": "Morong Doctors Hospital", "kind": "hospital", "osm_id": 962511905}}, {"type": "Feature", "geometry": {"type": "Point", "coordinates": [120.96855, 14.7344]}, "properties": {"name": "unnamed", "kind": "hospital", "osm_id": 982092608}}, {"type": "Feature", "geometry": {"type": "Point", "coordinates": [121.06385, 14.49875]}, "properties": {"name": "Bicutan Medican Center", "kind": "hospital", "osm_id": 986224943}}, {"type": "Feature", "geometry": {"type": "Point", "coordinates": [121.08227, 14.59052]}, "properties": {"name": "Bridgetowne Substation", "kind": "power_substation", "osm_id": 987363495}}, {"type": "Feature", "geometry": {"type": "Point", "coordinates": [120.88217, 14.37367]}, "properties": {"name": "General Trias Medicare Hospital", "kind": "hospital", "osm_id": 988449877}}, {"type": "Feature", "geometry": {"type": "Point", "coordinates": [120.98917, 14.68486]}, "properties": {"name": "Vian Family Hospital", "kind": "hospital", "osm_id": 1023374780}}, {"type": "Feature", "geometry": {"type": "Point", "coordinates": [121.1099, 14.67382]}, "properties": {"name": "Saint Mattheus Hospital", "kind": "hospital", "osm_id": 1024382287}}, {"type": "Feature", "geometry": {"type": "Point", "coordinates": [121.17672, 14.64013]}, "properties": {"name": "Antipolo Substation", "kind": "power_substation", "osm_id": 1060888354}}, {"type": "Feature", "geometry": {"type": "Point", "coordinates": [121.01762, 14.56305]}, "properties": {"name": "Makati Life Medical Center", "kind": "hospital", "osm_id": 1061369046}}, {"type": "Feature", "geometry": {"type": "Point", "coordinates": [121.23404, 14.49094]}, "properties": {"name": "Queen Mary Help of Christians Hospital", "kind": "hospital", "osm_id": 1062760210}}, {"type": "Feature", "geometry": {"type": "Point", "coordinates": [121.0653, 14.54406]}, "properties": {"name": "Allied Care Experts Medical Center", "kind": "hospital", "osm_id": 1072477745}}, {"type": "Feature", "geometry": {"type": "Point", "coordinates": [120.99706, 14.78948]}, "properties": {"name": "Marilao Substation", "kind": "power_substation", "osm_id": 1074804040}}, {"type": "Feature", "geometry": {"type": "Point", "coordinates": [121.07257, 14.51446]}, "properties": {"name": "Taguig City General Hospital", "kind": "hospital", "osm_id": 1075934213}}, {"type": "Feature", "geometry": {"type": "Point", "coordinates": [121.17129, 14.5008]}, "properties": {"name": "Binangonan Substation", "kind": "power_substation", "osm_id": 1087775057}}, {"type": "Feature", "geometry": {"type": "Point", "coordinates": [120.92887, 14.79552]}, "properties": {"name": "Saint Paul Hospital", "kind": "hospital", "osm_id": 1104981743}}, {"type": "Feature", "geometry": {"type": "Point", "coordinates": [121.0575, 14.32515]}, "properties": {"name": "First Aid Station", "kind": "hospital", "osm_id": 1116684380}}, {"type": "Feature", "geometry": {"type": "Point", "coordinates": [121.07828, 14.77009]}, "properties": {"name": "Bermudez Polymedic Hospital", "kind": "hospital", "osm_id": 1117530134}}, {"type": "Feature", "geometry": {"type": "Point", "coordinates": [120.96222, 14.32086]}, "properties": {"name": "Substation 1", "kind": "power_substation", "osm_id": 1161263456}}, {"type": "Feature", "geometry": {"type": "Point", "coordinates": [121.0425, 14.64042]}, "properties": {"name": "Eton Centris GIS Substation", "kind": "power_substation", "osm_id": 1161606296}}, {"type": "Feature", "geometry": {"type": "Point", "coordinates": [121.01633, 14.56626]}, "properties": {"name": "Makati GIS Substation", "kind": "power_substation", "osm_id": 1161688518}}, {"type": "Feature", "geometry": {"type": "Point", "coordinates": [121.02605, 14.42768]}, "properties": {"name": "Ayala Alabang Substation", "kind": "power_substation", "osm_id": 1161975443}}, {"type": "Feature", "geometry": {"type": "Point", "coordinates": [120.97448, 14.47803]}, "properties": {"name": "Zapote Substation", "kind": "power_substation", "osm_id": 1161985005}}, {"type": "Feature", "geometry": {"type": "Point", "coordinates": [120.95788, 14.38066]}, "properties": {"name": "Vermosa Substation", "kind": "power_substation", "osm_id": 1181941352}}, {"type": "Feature", "geometry": {"type": "Point", "coordinates": [121.18601, 14.57808]}, "properties": {"name": "Antipolo City Community Hospital Annex", "kind": "hospital", "osm_id": 1187061220}}, {"type": "Feature", "geometry": {"type": "Point", "coordinates": [121.17732, 14.58441]}, "properties": {"name": "Santana Maternity & Childrens Hospital", "kind": "hospital", "osm_id": 1189918897}}, {"type": "Feature", "geometry": {"type": "Point", "coordinates": [120.92135, 14.30639]}, "properties": {"name": "Manuel V. Santos Medical Center & Orthopedic Hospital", "kind": "hospital", "osm_id": 1208184626}}, {"type": "Feature", "geometry": {"type": "Point", "coordinates": [121.0121, 14.65953]}, "properties": {"name": "Balintawak Substation", "kind": "power_substation", "osm_id": 1213040608}}, {"type": "Feature", "geometry": {"type": "Point", "coordinates": [121.06958, 14.71754]}, "properties": {"name": "unnamed", "kind": "power_plant", "osm_id": 1217253342}}, {"type": "Feature", "geometry": {"type": "Point", "coordinates": [120.95722, 14.59144]}, "properties": {"name": "President Corazon C. Aquino General Hospital", "kind": "hospital", "osm_id": 1219924267}}, {"type": "Feature", "geometry": {"type": "Point", "coordinates": [121.22048, 14.48042]}, "properties": {"name": "Carlos Medical and Maternity Hospital", "kind": "hospital", "osm_id": 1226053145}}, {"type": "Feature", "geometry": {"type": "Point", "coordinates": [120.96746, 14.66577]}, "properties": {"name": "Malabon Meralco Substation", "kind": "power_substation", "osm_id": 1231042724}}, {"type": "Feature", "geometry": {"type": "Point", "coordinates": [120.99119, 14.59178]}, "properties": {"name": "National Center for Geriatric Health", "kind": "hospital", "osm_id": 1243950712}}, {"type": "Feature", "geometry": {"type": "Point", "coordinates": [121.0669, 14.69878]}, "properties": {"name": "Far Eastern University - Nicanor Reyes Medical Foundation", "kind": "hospital", "osm_id": 1251014451}}, {"type": "Feature", "geometry": {"type": "Point", "coordinates": [121.17424, 14.60562]}, "properties": {"name": "Assumption Specialty Hospital and Medical Center", "kind": "hospital", "osm_id": 1265623115}}, {"type": "Feature", "geometry": {"type": "Point", "coordinates": [121.00625, 14.53913]}, "properties": {"name": "Metro Pasay Hospital and Medical Center", "kind": "hospital", "osm_id": 1271746131}}, {"type": "Feature", "geometry": {"type": "Point", "coordinates": [121.06105, 14.4788]}, "properties": {"name": "Taguig Doctors Hospital", "kind": "hospital", "osm_id": 1284446292}}, {"type": "Feature", "geometry": {"type": "Point", "coordinates": [120.93767, 14.77831]}, "properties": {"name": "Bocaue Specialists Medical Center", "kind": "hospital", "osm_id": 1288233312}}, {"type": "Feature", "geometry": {"type": "Point", "coordinates": [120.94358, 14.79679]}, "properties": {"name": "Joni Villanueva General Hospital", "kind": "hospital", "osm_id": 1290448946}}, {"type": "Feature", "geometry": {"type": "Point", "coordinates": [121.08259, 14.62107]}, "properties": {"name": "Marikina Doctors Hospital and Medical Center", "kind": "hospital", "osm_id": 1290815713}}, {"type": "Feature", "geometry": {"type": "Point", "coordinates": [121.04845, 14.50284]}, "properties": {"name": "Healthway Cancer Care Hospital", "kind": "hospital", "osm_id": 1296098159}}, {"type": "Feature", "geometry": {"type": "Point", "coordinates": [121.04542, 14.50124]}, "properties": {"name": "unnamed", "kind": "power_substation", "osm_id": 1296102890}}, {"type": "Feature", "geometry": {"type": "Point", "coordinates": [121.00183, 14.61705]}, "properties": {"name": "United Doctors Medical Center", "kind": "hospital", "osm_id": 1302980224}}, {"type": "Feature", "geometry": {"type": "Point", "coordinates": [120.9818, 14.35297]}, "properties": {"name": "Dasmari\u00f1as City Medical Center", "kind": "hospital", "osm_id": 1318774954}}, {"type": "Feature", "geometry": {"type": "Point", "coordinates": [120.92645, 14.45179]}, "properties": {"name": "Binakayan Hospital and Medical Center", "kind": "hospital", "osm_id": 1325538014}}, {"type": "Feature", "geometry": {"type": "Point", "coordinates": [120.97463, 14.47205]}, "properties": {"name": "Las Pi\u00f1as General Hospital", "kind": "hospital", "osm_id": 1327201768}}, {"type": "Feature", "geometry": {"type": "Point", "coordinates": [120.98051, 14.61569]}, "properties": {"name": "Dr. Jose Fabella Memorial Hospital", "kind": "hospital", "osm_id": 1329028411}}, {"type": "Feature", "geometry": {"type": "Point", "coordinates": [121.07761, 14.57939]}, "properties": {"name": "Meralco ArcoVia Substation", "kind": "power_substation", "osm_id": 1337513227}}, {"type": "Feature", "geometry": {"type": "Point", "coordinates": [121.01992, 14.51691]}, "properties": {"name": "Air Force General Hospital", "kind": "hospital", "osm_id": 1350622464}}, {"type": "Feature", "geometry": {"type": "Point", "coordinates": [121.01791, 14.77728]}, "properties": {"name": "unnamed", "kind": "power_substation", "osm_id": 1411696988}}, {"type": "Feature", "geometry": {"type": "Point", "coordinates": [121.01463, 14.57453]}, "properties": {"name": "unnamed", "kind": "hospital", "osm_id": 1417691706}}, {"type": "Feature", "geometry": {"type": "Point", "coordinates": [120.91134, 14.48126]}, "properties": {"name": "Doctor Olivia Salamanca Memorial District Hospital", "kind": "hospital", "osm_id": 1428063750}}, {"type": "Feature", "geometry": {"type": "Point", "coordinates": [121.06931, 14.58995]}, "properties": {"name": "The Medical City", "kind": "hospital", "osm_id": 1435976373}}, {"type": "Feature", "geometry": {"type": "Point", "coordinates": [120.98427, 14.67523]}, "properties": {"name": "Sanctissimo Rosario General Hospital", "kind": "hospital", "osm_id": 1450354186}}, {"type": "Feature", "geometry": {"type": "Point", "coordinates": [121.11408, 14.68108]}, "properties": {"name": "Padre Pio Hospital", "kind": "hospital", "osm_id": 1482301511}}, {"type": "Feature", "geometry": {"type": "Point", "coordinates": [120.9692, 14.77498]}, "properties": {"name": "Marilao Substation", "kind": "power_substation", "osm_id": 1500129260}}, {"type": "Feature", "geometry": {"type": "Point", "coordinates": [121.08418, 14.75124]}, "properties": {"name": "North Caloocan GIS Substation", "kind": "power_substation", "osm_id": 1500158674}}, {"type": "Feature", "geometry": {"type": "Point", "coordinates": [121.01077, 14.76595]}, "properties": {"name": "Philville Substation", "kind": "power_substation", "osm_id": 1500637916}}, {"type": "Feature", "geometry": {"type": "Point", "coordinates": [121.01235, 14.61648]}, "properties": {"name": "Quezon Institute Compound", "kind": "hospital", "osm_id": 1504104774}}, {"type": "Feature", "geometry": {"type": "Point", "coordinates": [121.07445, 14.33649]}, "properties": {"name": "Ospital ng Binan (extension)", "kind": "hospital", "osm_id": 1518682277}}, {"type": "Feature", "geometry": {"type": "Point", "coordinates": [120.94002, 14.42417]}, "properties": {"name": "unnamed", "kind": "power_substation", "osm_id": 1528452384}}, {"type": "Feature", "geometry": {"type": "Point", "coordinates": [121.0267, 14.59521]}, "properties": {"name": "ACE Medical Center Mandaluyong", "kind": "hospital", "osm_id": 1537832135}}, {"type": "Feature", "geometry": {"type": "Point", "coordinates": [121.12849, 14.62102]}, "properties": {"name": "Antipolo City Hosital System - Annex IV", "kind": "hospital", "osm_id": 1551189137}}]}